start=new Date('2021-11-24T00:00:00.000Z').valueOf();
sats=[{"REF_FRAME":"TEME","MEAN_ANOMALY":"156.3056","ARG_OF_PERICENTER":"76.0143","EPHEMERIS_TYPE":"0","REV_AT_EPOCH":"359","TLE_LINE1":"1 48020U 21024AV  21327.91667824 -.00000502  00000-0 -14788-4 0  9992","OBJECT_ID":"2021-024AV","BSTAR":"-0.00001478800000","MEAN_MOTION_DDOT":"0.0000000000000","APOAPSIS":"548.408","CENTER_NAME":"EARTH","LAUNCH_DATE":"2021-03-24","CLASSIFICATION_TYPE":"U","MEAN_MOTION":"15.06400609","OBJECT_NAME":"STARLINK-2294","RA_OF_ASC_NODE":"100.1219","PERIAPSIS":"546.016","SEMIMAJOR_AXIS":"6925.347","NORAD_CAT_ID":"48020","FILE":"3222563","ECCENTRICITY":"0.00017270","OBJECT_TYPE":"PAYLOAD","GP_ID":"190363546","INCLINATION":"53.0540","DECAY_DATE":null,"RCS_SIZE":"LARGE","EPOCH":"2021-11-23T22:00:00.999936","ELEMENT_SET_NO":"999","PERIOD":"95.592","TIME_SYSTEM":"UTC","COUNTRY_CODE":"US","SITE":"AFETR","MEAN_ELEMENT_THEORY":"SGP4","MEAN_MOTION_DOT":"-0.00000502","TLE_LINE2":"2 48020  53.0540 100.1219 0001727  76.0143 156.3056 15.06400609  3599"},{"EPOCH":"2021-11-23T15:48:33.765696","ELEMENT_SET_NO":"999","PERIOD":"95.592","TIME_SYSTEM":"UTC","SITE":"AFETR","COUNTRY_CODE":"US","MEAN_ELEMENT_THEORY":"SGP4","TLE_LINE2":"2 48021  53.0564 106.2791 0001778  78.3125 281.8064 15.06406126 39232","MEAN_MOTION_DOT":"0.00000883","GP_ID":"190364298","OBJECT_TYPE":"PAYLOAD","DECAY_DATE":null,"INCLINATION":"53.0564","RCS_SIZE":"LARGE","LAUNCH_DATE":"2021-03-24","MEAN_MOTION":"15.06406126","CLASSIFICATION_TYPE":"U","OBJECT_NAME":"STARLINK-2301","RA_OF_ASC_NODE":"106.2791","SEMIMAJOR_AXIS":"6925.330","PERIAPSIS":"545.963","ECCENTRICITY":"0.00017780","NORAD_CAT_ID":"48021","FILE":"3222563","REF_FRAME":"TEME","MEAN_ANOMALY":"281.8064","ARG_OF_PERICENTER":"78.3125","EPHEMERIS_TYPE":"0","REV_AT_EPOCH":"3923","OBJECT_ID":"2021-024AW","TLE_LINE1":"1 48021U 21024AW  21327.65872414  .00000883  00000-0  78161-4 0  9992","APOAPSIS":"548.426","BSTAR":"0.00007816100000","MEAN_MOTION_DDOT":"0.0000000000000","CENTER_NAME":"EARTH"},{"MEAN_MOTION_DDOT":"0.0000000000000","BSTAR":"-0.00003656500000","APOAPSIS":"548.458","CENTER_NAME":"EARTH","REV_AT_EPOCH":"3848","EPHEMERIS_TYPE":"0","TLE_LINE1":"1 48022U 21024AX  21327.92501992 -.00000826  00000-0 -36565-4 0  9994","OBJECT_ID":"2021-024AX","ARG_OF_PERICENTER":"80.4227","REF_FRAME":"TEME","MEAN_ANOMALY":"279.6961","NORAD_CAT_ID":"48022","FILE":"3222563","ECCENTRICITY":"0.00017660","PERIAPSIS":"546.012","SEMIMAJOR_AXIS":"6925.370","CLASSIFICATION_TYPE":"U","MEAN_MOTION":"15.06392935","OBJECT_NAME":"STARLINK-2298","RA_OF_ASC_NODE":"165.1028","LAUNCH_DATE":"2021-03-24","INCLINATION":"53.0533","DECAY_DATE":null,"RCS_SIZE":"LARGE","OBJECT_TYPE":"PAYLOAD","GP_ID":"190364048","MEAN_ELEMENT_THEORY":"SGP4","MEAN_MOTION_DOT":"-0.00000826","TLE_LINE2":"2 48022  53.0533 165.1028 0001766  80.4227 279.6961 15.06392935 38489","TIME_SYSTEM":"UTC","COUNTRY_CODE":"US","SITE":"AFETR","ELEMENT_SET_NO":"999","PERIOD":"95.593","EPOCH":"2021-11-23T22:12:01.721088"},{"GP_ID":"190362796","OBJECT_TYPE":"PAYLOAD","DECAY_DATE":null,"INCLINATION":"53.0542","RCS_SIZE":"LARGE","ELEMENT_SET_NO":"999","PERIOD":"95.593","EPOCH":"2021-11-23T16:12:27.913248","MEAN_ELEMENT_THEORY":"SGP4","TLE_LINE2":"2 48023  53.0542 166.2099 0001893  75.0369 285.0829 15.06390451 38449","MEAN_MOTION_DOT":"-0.00000877","TIME_SYSTEM":"UTC","SITE":"AFETR","COUNTRY_CODE":"US","ARG_OF_PERICENTER":"75.0369","REF_FRAME":"TEME","MEAN_ANOMALY":"285.0829","APOAPSIS":"548.554","BSTAR":"-0.00003996000000","MEAN_MOTION_DDOT":"0.0000000000000","CENTER_NAME":"EARTH","EPHEMERIS_TYPE":"0","REV_AT_EPOCH":"3844","OBJECT_ID":"2021-024AY","TLE_LINE1":"1 48023U 21024AY  21327.67532307 -.00000877  00000-0 -39960-4 0  9999","MEAN_MOTION":"15.06390451","CLASSIFICATION_TYPE":"U","RA_OF_ASC_NODE":"166.2099","OBJECT_NAME":"STARLINK-2292","LAUNCH_DATE":"2021-03-24","ECCENTRICITY":"0.00018930","FILE":"3222563","NORAD_CAT_ID":"48023","SEMIMAJOR_AXIS":"6925.378","PERIAPSIS":"545.932"},{"PERIAPSIS":"333.888","SEMIMAJOR_AXIS":"6712.806","FILE":"3222563","NORAD_CAT_ID":"48024","ECCENTRICITY":"0.00011660","LAUNCH_DATE":"2021-03-24","RA_OF_ASC_NODE":"68.8548","OBJECT_NAME":"STARLINK-2302","CLASSIFICATION_TYPE":"U","MEAN_MOTION":"15.78507395","TLE_LINE1":"1 48024U 21024AZ  21327.91667824  .00574422  00000-0  30324-2 0  9993","OBJECT_ID":"2021-024AZ","REV_AT_EPOCH":"369","EPHEMERIS_TYPE":"0","CENTER_NAME":"EARTH","BSTAR":"0.00303240000000","MEAN_MOTION_DDOT":"0.0000000000000","APOAPSIS":"335.454","MEAN_ANOMALY":"336.0671","REF_FRAME":"TEME","ARG_OF_PERICENTER":"68.1775","COUNTRY_CODE":"US","SITE":"AFETR","TIME_SYSTEM":"UTC","TLE_LINE2":"2 48024  53.0543  68.8548 0001166  68.1775 336.0671 15.78507395  3691","MEAN_MOTION_DOT":"0.00574422","MEAN_ELEMENT_THEORY":"SGP4","EPOCH":"2021-11-23T22:00:00.999936","PERIOD":"91.225","ELEMENT_SET_NO":"999","DECAY_DATE":null,"RCS_SIZE":"LARGE","INCLINATION":"53.0543","OBJECT_TYPE":"PAYLOAD","GP_ID":"190363046"},{"FILE":"3222563","NORAD_CAT_ID":"48025","ECCENTRICITY":"0.00026550","PERIAPSIS":"332.859","SEMIMAJOR_AXIS":"6712.776","OBJECT_NAME":"STARLINK-2318","RA_OF_ASC_NODE":"68.8507","CLASSIFICATION_TYPE":"U","MEAN_MOTION":"15.78517992","LAUNCH_DATE":"2021-03-24","CENTER_NAME":"EARTH","MEAN_MOTION_DDOT":"0.0000000000000","BSTAR":"0.00297420000000","APOAPSIS":"336.423","TLE_LINE1":"1 48025U 21024BA  21327.91667824  .00562807  00000-0  29742-2 0  9990","OBJECT_ID":"2021-024BA","REV_AT_EPOCH":"369","EPHEMERIS_TYPE":"0","ARG_OF_PERICENTER":"280.0676","MEAN_ANOMALY":"124.8986","REF_FRAME":"TEME","MEAN_MOTION_DOT":"0.00562807","TLE_LINE2":"2 48025  53.0543  68.8507 0002655 280.0676 124.8986 15.78517992  3692","MEAN_ELEMENT_THEORY":"SGP4","COUNTRY_CODE":"US","SITE":"AFETR","TIME_SYSTEM":"UTC","PERIOD":"91.225","ELEMENT_SET_NO":"999","EPOCH":"2021-11-23T22:00:00.999936","DECAY_DATE":null,"INCLINATION":"53.0543","RCS_SIZE":"LARGE","OBJECT_TYPE":"PAYLOAD","GP_ID":"190363798"},{"CENTER_NAME":"EARTH","BSTAR":"-0.00007117100000","MEAN_MOTION_DDOT":"0.0000000000000","APOAPSIS":"548.585","TLE_LINE1":"1 48026U 21024BB  21327.78727878 -.00001341  00000-0 -71171-4 0  9990","OBJECT_ID":"2021-024BB","EPHEMERIS_TYPE":"0","REV_AT_EPOCH":"3833","ARG_OF_PERICENTER":"78.5619","MEAN_ANOMALY":"281.5586","REF_FRAME":"TEME","NORAD_CAT_ID":"48026","FILE":"3222563","ECCENTRICITY":"0.00019290","PERIAPSIS":"545.913","SEMIMAJOR_AXIS":"6925.384","RA_OF_ASC_NODE":"170.7982","OBJECT_NAME":"STARLINK-2278","CLASSIFICATION_TYPE":"U","MEAN_MOTION":"15.06388564","LAUNCH_DATE":"2021-03-24","INCLINATION":"53.0369","DECAY_DATE":null,"RCS_SIZE":"LARGE","OBJECT_TYPE":"PAYLOAD","GP_ID":"190364549","MEAN_MOTION_DOT":"-0.00001341","TLE_LINE2":"2 48026  53.0369 170.7982 0001929  78.5619 281.5586 15.06388564 38337","MEAN_ELEMENT_THEORY":"SGP4","COUNTRY_CODE":"US","SITE":"AFETR","TIME_SYSTEM":"UTC","PERIOD":"95.593","ELEMENT_SET_NO":"999","EPOCH":"2021-11-23T18:53:40.886592"},{"ARG_OF_PERICENTER":"82.6748","REF_FRAME":"TEME","MEAN_ANOMALY":"277.4462","APOAPSIS":"548.552","BSTAR":"0.00005862000000","MEAN_MOTION_DDOT":"0.0000000000000","CENTER_NAME":"EARTH","REV_AT_EPOCH":"3869","EPHEMERIS_TYPE":"0","OBJECT_ID":"2021-024BC","TLE_LINE1":"1 48027U 21024BC  21327.87988273  .00000592  00000-0  58620-4 0  9998","MEAN_MOTION":"15.06401474","CLASSIFICATION_TYPE":"U","OBJECT_NAME":"STARLINK-2300","RA_OF_ASC_NODE":"145.2972","LAUNCH_DATE":"2021-03-24","ECCENTRICITY":"0.00019390","NORAD_CAT_ID":"48027","FILE":"3222563","SEMIMAJOR_AXIS":"6925.344","PERIAPSIS":"545.866","GP_ID":"190363297","OBJECT_TYPE":"PAYLOAD","DECAY_DATE":null,"INCLINATION":"53.0544","RCS_SIZE":"LARGE","ELEMENT_SET_NO":"999","PERIOD":"95.592","EPOCH":"2021-11-23T21:07:01.867872","MEAN_ELEMENT_THEORY":"SGP4","TLE_LINE2":"2 48027  53.0544 145.2972 0001939  82.6748 277.4462 15.06401474 38691","MEAN_MOTION_DOT":"0.00000592","TIME_SYSTEM":"UTC","SITE":"AFETR","COUNTRY_CODE":"US"},{"PERIAPSIS":"545.803","SEMIMAJOR_AXIS":"6925.429","NORAD_CAT_ID":"48028","FILE":"3222563","ECCENTRICITY":"0.00021520","LAUNCH_DATE":"2021-03-24","CLASSIFICATION_TYPE":"U","MEAN_MOTION":"15.06373848","OBJECT_NAME":"STARLINK-2264","RA_OF_ASC_NODE":"100.5002","EPHEMERIS_TYPE":"0","REV_AT_EPOCH":"358","TLE_LINE1":"1 48028U 21024BD  21327.83335648  .00040924  00000-0  27523-2 0  9996","OBJECT_ID":"2021-024BD","MEAN_MOTION_DDOT":"0.0000000000000","BSTAR":"0.00275230000000","APOAPSIS":"548.784","CENTER_NAME":"EARTH","REF_FRAME":"TEME","MEAN_ANOMALY":"303.7084","ARG_OF_PERICENTER":"96.5646","TIME_SYSTEM":"UTC","COUNTRY_CODE":"US","SITE":"AFETR","MEAN_ELEMENT_THEORY":"SGP4","TLE_LINE2":"2 48028  53.0550 100.5002 0002152  96.5646 303.7084 15.06373848  3582","MEAN_MOTION_DOT":"0.00040924","EPOCH":"2021-11-23T20:00:01.999872","ELEMENT_SET_NO":"999","PERIOD":"95.594","INCLINATION":"53.0550","DECAY_DATE":null,"RCS_SIZE":"LARGE","OBJECT_TYPE":"PAYLOAD","GP_ID":"190363547"},{"MEAN_ELEMENT_THEORY":"SGP4","TLE_LINE2":"2 48029  53.0556 165.1390 0001985  82.5809 277.5405 15.06399075 38487","MEAN_MOTION_DOT":"0.00000688","TIME_SYSTEM":"UTC","SITE":"AFETR","COUNTRY_CODE":"US","ELEMENT_SET_NO":"999","PERIOD":"95.592","EPOCH":"2021-11-23T22:02:46.872384","DECAY_DATE":null,"INCLINATION":"53.0556","RCS_SIZE":"LARGE","GP_ID":"190364299","OBJECT_TYPE":"PAYLOAD","ECCENTRICITY":"0.00019850","FILE":"3222563","NORAD_CAT_ID":"48029","SEMIMAJOR_AXIS":"6925.351","PERIAPSIS":"545.842","MEAN_MOTION":"15.06399075","CLASSIFICATION_TYPE":"U","OBJECT_NAME":"STARLINK-2299","RA_OF_ASC_NODE":"165.1390","LAUNCH_DATE":"2021-03-24","APOAPSIS":"548.591","MEAN_MOTION_DDOT":"0.0000000000000","BSTAR":"0.00006510000000","CENTER_NAME":"EARTH","EPHEMERIS_TYPE":"0","REV_AT_EPOCH":"3848","OBJECT_ID":"2021-024BE","TLE_LINE1":"1 48029U 21024BE  21327.91859806  .00000688  00000-0  65100-4 0  9991","ARG_OF_PERICENTER":"82.5809","REF_FRAME":"TEME","MEAN_ANOMALY":"277.5405"}];
